GLOBALSTAR M001 [-]     
1 25162U 98008A   24057.93087711 -.00000083  00000+0  10500-3 0  9995
2 25162  52.0023 279.3706 0001578   4.9693  99.6996 12.38177589184716
GLOBALSTAR M004 [-]     
1 25163U 98008B   24057.33919729 -.00000066  00000+0  20805-3 0  9993
2 25163  51.9994  68.8522 0002711 313.3951 149.2329 12.63351285201417
GLOBALSTAR M002 [-]     
1 25164U 98008C   24057.74968329 -.00000048  00000+0  56029-3 0  9996
2 25164  52.0052 354.7819 0001596   5.8584 354.2254 11.61498433128705
GLOBALSTAR M003 [-]     
1 25165U 98008D   24057.94191906  .00000049  00000+0  14776-2 0  9990
2 25165  51.9832  47.5700 0008165  56.3221 319.3649 12.11981142175470
GLOBALSTAR M006 [-]     
1 25307U 98023B   24057.89784615 -.00000048  00000+0  56244-3 0  9991
2 25307  51.9965 322.3221 0003857 342.8116  96.3869 11.58156745161649
GLOBALSTAR M008 [-]     
1 25309U 98023D   24057.54808206 -.00000033  00000+0  49590-3 0  9998
2 25309  51.9961 139.9147 0002205 236.5967 228.0941 12.36036911178906
